{"spkid": "20470310", "covariance": {"epoch": "2456836.5", "data": [["2.519403346546235E-14", "-2.38748684144577E-14", "3.916396560279895E-12", "2.26555658016953E-12", "-5.292245903129533E-13", "2.025416463539865E-12"], ["-2.38748684144577E-14", "2.263214256081055E-14", "-3.74178677906557E-12", "-2.155382474671391E-12", "4.944646211504689E-13", "-1.914221613360452E-12"], ["3.916396560279895E-12", "-3.74178677906557E-12", "1.172559687506875E-9", "4.51776371576252E-10", "1.240298432895319E-10", "3.338213600933301E-10"], ["2.26555658016953E-12", "-2.155382474671391E-12", "4.51776371576252E-10", "5.089493900953104E-10", "-2.73690679374609E-10", "3.287140121416604E-10"], ["-5.292245903129533E-13", "4.944646211504689E-13", "1.240298432895319E-10", "-2.73690679374609E-10", "3.511215947728079E-10", "-1.704381865097195E-10"], ["2.025416463539865E-12", "-1.914221613360452E-12", "3.338213600933301E-10", "3.287140121416604E-10", "-1.704381865097195E-10", "3.186605138910731E-10"]], "elements": [{"value": ".395250246687539", "title": "eccentricity", "units": null, "name": "e", "sigma": 1.58726284734011e-07, "label": "e"}, {"sigma": 1.50439830366863e-07, "name": "q", "units": "au", "title": "perihelion distance", "value": ".5674710390542743", "label": "q"}, {"name": "tp", "sigma": 3.42426588848891e-05, "title": "time of perihelion passage", "value": "2456829.838117608705", "units": "TDB", "label": "tp"}, {"label": "node", "title": "longitude of the ascending node", "value": "262.8249549799461", "units": "deg", "name": "om", "sigma": 2.25599066951818e-05}, {"title": "argument of perihelion", "value": "237.326008777046", "units": "deg", "sigma": 1.87382388386104e-05, "name": "w", "label": "peri"}, {"label": "i", "name": "i", "sigma": 1.78510647831179e-05, "title": "inclination", "value": "25.19404946979939", "units": "deg"}], "labels": ["e", "q", "tp", "node", "peri", "i"]}, "elements": [{"label": "e", "units": null, "value": ".3952382398378927", "title": "eccentricity", "sigma": "1.5886E-7", "name": "e"}, {"name": "a", "sigma": "4.8843E-9", "value": ".9383060836589482", "title": "semi-major axis", "units": "au", "label": "a"}, {"label": "q", "units": "au", "title": "perihelion distance", "value": ".5674516387243991", "sigma": "1.503E-7", "name": "q"}, {"units": "deg", "value": "25.19405576822311", "title": "inclination; angle with respect to x-y ecliptic plane", "sigma": "1.7846E-5", "name": "i", "label": "i"}, {"value": "262.7687871886751", "title": "longitude of the ascending node", "units": "deg", "name": "om", "sigma": "2.2588E-5", "label": "node"}, {"label": "peri", "name": "w", "sigma": "1.8759E-5", "units": "deg", "title": "argument of perihelion", "value": "237.3687477165557"}, {"label": "M", "title": "mean anomaly", "value": "58.65150838556171", "units": "deg", "name": "ma", "sigma": "3.2364E-5"}, {"label": "tp", "sigma": "2.9644E-5", "name": "tp", "units": "TDB", "value": "2461146.413122477065", "title": "time of perihelion passage"}, {"label": "period", "name": "per", "sigma": "2.5922E-6", "title": "sidereal orbital period", "value": "331.9825260120622", "units": "d"}, {"label": "n", "name": "n", "sigma": "8.4671E-9", "units": "deg/d", "value": "1.084394423780364", "title": "mean motion"}, {"label": "Q", "sigma": "6.8147E-9", "name": "ad", "title": "aphelion distance", "value": "1.309160528593497", "units": "au"}], "epoch": "2461200.5"}